[{"OBJECT_NAME":"QPS-SAR-10 (WADATSUMI-I)","OBJECT_ID":"2025-104A","EPOCH":"2026-03-09T22:18:19.817856","MEAN_MOTION":15.00816738,"ECCENTRICITY":0.00107055,"INCLINATION":42.0035,"RA_OF_ASC_NODE":106.051,"ARG_OF_PERICENTER":46.9104,"MEAN_ANOMALY":313.2617,"EPHEMERIS_TYPE":0,"CLASSIFICATION_TYPE":"U","NORAD_CAT_ID":64055,"ELEMENT_SET_NO":999,"REV_AT_EPOCH":4451,"BSTAR":0.00049051731,"MEAN_MOTION_DOT":6.161e-5,"MEAN_MOTION_DDOT":0},{"OBJECT_NAME":"STARLINK-34806","OBJECT_ID":"2025-165K","EPOCH":"2026-03-09T22:28:33.330432","MEAN_MOTION":15.05665154,"ECCENTRICITY":3.883e-5,"INCLINATION":97.602,"RA_OF_ASC_NODE":147.412,"ARG_OF_PERICENTER":127.2294,"MEAN_ANOMALY":232.8968,"EPHEMERIS_TYPE":0,"CLASSIFICATION_TYPE":"U","NORAD_CAT_ID":65065,"ELEMENT_SET_NO":999,"REV_AT_EPOCH":3482,"BSTAR":0.00069838759,"MEAN_MOTION_DOT":0.00010035,"MEAN_MOTION_DDOT":0}]
